TIANWANG 1C (TW-1C)     
1 40926U 15051B   17198.81544942  .00006371  00000-0  14578-3 0  9991
2 40926  97.2280 238.1427 0013541  63.8011  55.2222 15.43059747101646
TIANWANG 1B (TW-1B)     
1 40927U 15051C   17198.77295787  .00005708  00000-0  13580-3 0  9992
2 40927  97.2365 238.1028 0013331  71.8557  20.0062 15.41943139101589
TIANWANG 1A (TW-1A)     
1 40928U 15051D   17198.89699628  .00003270  00000-0  94415-4 0  9997
2 40928  97.2249 234.1610 0014592  87.8089 354.9995 15.36281265101416
LAPAN-A2 (IO-86)        
1 40931U 15052B   17198.37033151  .00000669  00000-0  40546-5 0  9994
2 40931   5.9999  17.5016 0014234 310.7173  49.1810 14.76533641 97432
LQSAT                   
1 40958U 15057A   17198.88488375  .00000041  00000-0  14230-4 0  9990
2 40958  97.9767 273.6657 0017781 332.4015  27.6229 14.72972667 95633
CHUBUSAT-2              
1 41338U 16012B   17198.56855280  .00000449  00000-0  28644-4 0  9999
2 41338  31.0034 279.3068 0014013 359.9720   0.0913 14.99758536 77555
CHUBUSAT-3              
1 41339U 16012C   17198.55916937  .00000298  00000-0  16624-4 0  9993
2 41339  31.0119 278.4626 0013739   5.7937 354.2863 14.99961754 77534
OUFTI-1                 
1 41458U 16025C   17198.93144816  .00002313  00000-0  12664-3 0  9999
2 41458  98.1800 238.2682 0174991 186.5676 173.3259 15.03236135 67205
E-ST@R-II               
1 41459U 16025D   17198.88896654  .00000740  00000-0  44077-4 0  9994
2 41459  98.1852 238.1775 0174599 186.8123 173.0725 15.03079988 67182
AAUSAT 4                
1 41460U 16025E   17198.80166911  .00001771  00000-0  98748-4 0  9993
2 41460  98.1743 238.1978 0167225 185.4653 174.4788 15.03982614 67193
NUSAT 1 (LO-87)         
1 41557U 16033B   17198.68009763  .00001879  00000-0  73333-4 0  9998
2 41557  97.4624 278.1975 0012622 258.5922 101.3899 15.27126545 63087
BEESAT-4                
1 41619U 16040W   17198.12911181  .00002121  00000-0  99164-4 0  9991
2 41619  97.4603 260.2257 0011117 330.8658  29.1956 15.20836683 47140
PRATHAM                 
1 41783U 16059A   17198.94132223  .00000076  00000-0  24125-4 0  9997
2 41783  98.1648 259.9939 0034865  65.5965 294.8869 14.62844671 43094
ALSAT 1N                
1 41789U 16059G   17198.76772456  .00000087  00000-0  25774-4 0  9994
2 41789  98.1657 260.3828 0029618  60.1866 300.2266 14.64057433 43080
NAYIF-1 (EO-88)         
1 42017U 17008BX  17198.91985277  .00003742  00000-0  16173-3 0  9991
2 42017  97.4930 260.3152 0008292 109.8992 250.3139 15.23071058 23163
LILACSAT-1              
1 42725U 98067ME  17198.54322885  .00019764  00000-0  28860-3 0  9997
2 42725  51.6394 246.5930 0007526  59.6148 300.5587 15.55626444  8202
MAX VALIER SAT          
1 42778U 17036P   17198.88646504  .00001720  00000-0  82034-4 0  9993
2 42778  97.4497 258.3604 0013744 153.1912 207.0036 15.20374622  3697
